LUSAT (LO-19)           
1 20442U 90005G   26068.62099839  .00000189  00000+0  84338-4 0  9991
2 20442  98.8938  87.6461 0012340 134.6824 225.5367 14.34087969888127
UNIBRITE                
1 39092U 13009G   26068.46859279  .00000298  00000+0  11622-3 0  9991
2 39092  98.3994 250.4680 0009365 167.5557 192.5863 14.36367120682677
